{"type":"FeatureCollection","features":[{"type":"Feature","properties":{"depth_m":2.0},"geometry":{"type":"LineString","coordinates":[[-158.08131172840797,21.625370680929265],[-158.08211419754355,21.625308781865428],[-158.08242283951876,21.62521361273548],[-158.08272187869807,21.62498456790124],[-158.0828828517466,21.624737654321066],[-158.0829659041147,21.62442901234585],[-158.08297229277377,21.624151234568153],[-158.08286812197366,21.623657407407805],[-158.08300102002042,21.62334876543259],[-158.08290146334693,21.623194444444977],[-158.082877103101,21.622916666667283],[-158.08291487980452,21.622608024692067],[-158.0830081157647,21.62245370370446],[-158.08279320988902,21.62227517462391],[-158.0826080247039,21.62219256822256],[-158.0825862827616,21.62211419753172],[-158.0826442560932,21.622021604939153],[-158.08300925927168,21.621834708293058],[-158.08387345680228,21.62175020638769],[-158.08396604939483,21.6217685196457],[-158.08415123457996,21.62191742064897],[-158.08439814816015,21.621912195764114],[-158.08452160495023,21.622017340108158],[-158.08467592593783,21.622016260498516],[-158.08480981256275,21.621959876544107],[-158.0848643357406,21.621867283951545],[-158.08467783124163,21.62162037037137],[-158.0846141975428,21.621596742862835],[-158.08442901235767,21.621695513553558],[-158.08433641976507,21.621691110910362],[-158.0841820987775,21.621627309225783],[-158.08420337413676,21.621527777778805],[-158.08442901235767,21.621451936833886],[-158.08498456791307,21.62109660517407],[-158.0851697530982,21.621065126867403],[-158.0852539951084,21.620941358025892],[-158.08538580248083,21.62086423771597],[-158.0856946286414,21.621003086420938],[-158.08566358025854,21.62124146855011],[-158.0857253086536,21.62133488026287],[-158.08584876544367,21.621399597557065],[-158.08594135803622,21.621415848734543],[-158.08599909484988,21.621373456791197],[-158.08599135420218,21.621157407408546],[-158.08621913581393,21.62110492965749],[-158.0862278172678,21.621003086420934],[-158.08609581955903,21.62087962963085],[-158.0860998762446,21.620632716050675],[-158.08581790124614,21.620299275329124],[-158.08577142860509,21.619984567902716],[-158.08608197921495,21.619799382717588],[-158.08606559001635,21.6196759259275],[-158.08595743143195,21.619490740742364],[-158.08596601985914,21.61933641975476],[-158.08621415960053,21.61918209876715],[-158.08618941205168,21.618873456791935],[-158.08638133199486,21.618595679014238],[-158.08647515059988,21.618348765434064],[-158.08677469136933,21.618041985545066],[-158.08707431853918,21.61791666666876],[-158.08722750462056,21.61776234568115],[-158.08759937186196,21.6175462962985],[-158.08779320988754,21.617550467442342],[-158.08779320988754,21.617631846637547],[-158.08767150497548,21.61773148148363],[-158.0875922222333,21.618070987656367],[-158.08722635613756,21.618410493829106],[-158.0871858967964,21.61862654321176],[-158.08696488100054,21.61884259259441],[-158.08694619902707,21.619089506174586],[-158.08669932261733,21.619398148149802],[-158.08681644091638,21.619583333334933],[-158.08723765433214,21.619840987941927],[-158.08751543210985,21.62023055783057],[-158.08766975309746,21.6202844679954],[-158.08787558862934,21.620262345680413],[-158.0880018827536,21.620169753087847],[-158.0883179012454,21.619695923775744],[-158.08847137618406,21.61933641975476],[-158.08844315489262,21.619058641977066],[-158.08862724231784,21.618873456791935],[-158.08850308643053,21.618711459997858],[-158.08826050034912,21.618194444446456],[-158.08842175298014,21.61788580247124],[-158.08883062273455,21.61773148148363],[-158.08893518519585,21.617637955477313],[-158.0892239880614,21.61757716049602],[-158.08942470572399,21.617361111113368],[-158.08951871506238,21.617175925928237],[-158.089674897593,21.617083333335675],[-158.08992283951653,21.617202488398057],[-158.09028766450288,21.6175462962985],[-158.0903606163404,21.6175462962985],[-158.09026025309967,21.617175925928237],[-158.09003757373893,21.61686728395302],[-158.0900021352693,21.616712962965412],[-158.09007716050414,21.61659513352814],[-158.09026234568927,21.61661464073204],[-158.09050925926945,21.61653150438807],[-158.09054581240025,21.616466049385238],[-158.0899676765473,21.615910493829848],[-158.09000908565395,21.615817901237282],[-158.09053586265412,21.615354938274454],[-158.09114267564655,21.615015432101714],[-158.09137345680006,21.61492077834715],[-158.09153817553437,21.614922839509152],[-158.09130990505264,21.615200617286845],[-158.0912802557586,21.616033950619933],[-158.09134259260253,21.616146520933192],[-158.0915038332547,21.616250000002587],[-158.09158950618274,21.616452343126866],[-158.091959876553,21.616578637182553],[-158.09208333334306,21.61653772280569],[-158.0927006172935,21.61608457837327],[-158.09291666667616,21.6160647997146],[-158.09307098766374,21.615930909863074],[-158.0934104938365,21.6159515971663],[-158.09365740741669,21.615908440150932],[-158.09354933860453,21.615601851854628],[-158.09289288565145,21.61523148148437],[-158.0926589832627,21.614861111114106],[-158.09273038479367,21.614768518521544],[-158.0929200731908,21.614706790126498],[-158.092929236217,21.614583333336412],[-158.0930092592687,21.61447386353399],[-158.0931018518613,21.614440898724137],[-158.09319444445384,21.614473179664976],[-158.09353395062658,21.614760722775877],[-158.09378086420676,21.614870259402995],[-158.0939660493919,21.614827887584447],[-158.09436728395966,21.614986660711725],[-158.0946759259349,21.61499874717174],[-158.094799382725,21.614950153838485]]}},{"type":"Feature","properties":{"depth_m":2.0},"geometry":{"type":"LineString","coordinates":[[-158.08594135803622,21.621109056684254],[-158.08584876544364,21.62110125688052],[-158.08579657946564,21.621033950618457],[-158.08592844402835,21.621033950618457],[-158.08594135803622,21.621109056684254]]}},{"type":"Feature","properties":{"depth_m":2.0},"geometry":{"type":"LineString","coordinates":[[-158.0921450617381,21.615177280140692],[-158.09186728396043,21.615122291121544],[-158.0917261205284,21.61489197531163],[-158.0918364197629,21.614824300654],[-158.09220679013316,21.61474774739053],[-158.09233024692324,21.614610921223527],[-158.092510232793,21.614645061731455],[-158.0926167550064,21.614861111114106],[-158.09257914047078,21.615015432101714],[-158.09248456791084,21.61506591498142],[-158.09233024692324,21.615062971905402],[-158.0921450617381,21.615177280140692]]}},{"type":"Feature","properties":{"depth_m":4.0},"geometry":{"type":"LineString","coordinates":[[-158.08302765335958,21.62566358024672],[-158.0833179012469,21.625513297565327],[-158.08353395062954,21.625297810545042],[-158.08359567902457,21.62506158715419],[-158.08380275339107,21.62479938271611],[-158.08378335493177,21.624521604938412],[-158.08382795064506,21.62442901234585],[-158.0840586419874,21.62432713849652],[-158.08421296297502,21.624175918546804],[-158.08452160495023,21.624317779752076],[-158.0847993827279,21.62417625959317],[-158.08476467063176,21.624089506173114],[-158.08466032882518,21.624027777778064],[-158.08424382717254,21.624001881207636],[-158.08396604939483,21.62392310276572],[-158.08386343485037,21.623842592592936],[-158.0835695874497,21.623256172840023],[-158.08353012736183,21.62294753086481],[-158.08343682133653,21.622793209877194],[-158.08362999281496,21.6225154320995],[-158.08371913581468,21.62247649590389],[-158.08404686175936,21.62266975308711],[-158.08442901235767,21.623022038527424],[-158.0848919753205,21.623111208410826],[-158.08510802470315,21.62321996586403],[-158.08523148149322,21.62321765811558],[-158.08535690578594,21.623163580247457],[-158.08545064323195,21.622978395062326],[-158.08541666667836,21.622914909701176],[-158.0851592294831,21.622793209877194],[-158.0851697530982,21.62274815281679],[-158.08544753087588,21.622600911756066],[-158.0857561728511,21.622785125781945],[-158.08594135803622,21.622629604762132],[-158.08594135803622,21.62257711014512],[-158.08581790124614,21.62259723321968],[-158.08569154890623,21.622361111111893],[-158.0858796296412,21.622007178500823],[-158.08600308643128,21.622002453494183],[-158.08619777072477,21.622083333334196],[-158.0863733296576,21.622268518519327],[-158.0864351851966,21.622275104865462],[-158.08668209877675,21.622129311329722],[-158.08680555556685,21.6219451753242],[-158.087052469147,21.62196824425494],[-158.08726121498353,21.621836419754022],[-158.08729699407598,21.62177469135898],[-158.08716395599617,21.62165123456889],[-158.08734258041648,21.62146604938376],[-158.08726760420856,21.621126543211023],[-158.08711419754206,21.62103053921523],[-158.08692901235693,21.6210357138933],[-158.08671912129515,21.620941358025892],[-158.0867450464532,21.620725308643237],[-158.0866388089358,21.620601851853152],[-158.08662037038172,21.620081834753506],[-158.08677469136933,21.62020777927225],[-158.086990740752,21.620246662109267],[-158.08729938272722,21.620525980466397],[-158.08748456791233,21.620532241296427],[-158.08758269892076,21.620601851853152],[-158.08774645865466,21.621003086420934],[-158.08751543210985,21.621071766736648],[-158.08742500431538,21.621219135803585],[-158.08748456791233,21.621339483119957],[-158.08791666667764,21.62134212595142],[-158.0879910979783,21.62128086419863],[-158.08810185186275,21.621019861703395],[-158.0883179012454,21.621067527181587],[-158.08841049383798,21.62102537070064],[-158.08868535603094,21.62063271605067],[-158.08883336403284,21.620046296297758],[-158.08897639016448,21.619768518520065],[-158.0890126305764,21.619429012347325],[-158.0896007024724,21.619027777779543],[-158.08976326086892,21.61875000000185],[-158.0896760398264,21.618533950619195],[-158.08952160494874,21.618371633909966],[-158.08923375343994,21.61844135802663],[-158.08926856783043,21.61822530864398],[-158.08901265032327,21.618163580248932],[-158.08897619446566,21.61810185185389],[-158.0890040042688,21.618009259261324],[-158.08936728396114,21.617848665650804],[-158.08970679013387,21.61792953924871],[-158.08998456791159,21.617891601565727],[-158.09044753087443,21.618461414713348],[-158.09094135803477,21.618629224852288],[-158.09137345680006,21.619053416056502],[-158.09152777778763,21.61910962278968],[-158.09168209877527,21.619085613031338],[-158.09177469136785,21.61900416761837],[-158.09202040795014,21.618472222224153],[-158.09195987655298,21.618157132210868],[-158.0921352403866,21.618009259261328],[-158.09205543950637,21.617824074076193],[-158.09211419754058,21.61778397604155],[-158.0922685185282,21.617848288877152],[-158.09256624486554,21.617515432100976],[-158.0927006172935,21.61724396325424],[-158.09288580247863,21.61723906480747],[-158.09288580247863,21.61676398062058],[-158.09297839507119,21.616719332902775],[-158.09307098766376,21.616751483202105],[-158.09319444445384,21.617037745132187],[-158.09328703704642,21.61708946979174],[-158.09331850212985,21.61705246913815],[-158.09324870921677,21.616898148150543],[-158.09328703704642,21.61662992180609],[-158.0935648148241,21.616887003563953],[-158.09397048677866,21.61686728395302],[-158.09418209877455,21.61643142267499],[-158.0945751114136,21.616280864200107],[-158.0946693400374,21.61597222222489],[-158.09479938272497,21.615873002586795]]}},{"type":"Feature","properties":{"depth_m":4.0},"geometry":{"type":"LineString","coordinates":[[-158.08615740741885,21.622362708534826],[-158.0861978244859,21.622299382716847],[-158.08606481482633,21.622256464621188],[-158.08607496706333,21.62233024691437],[-158.08615740741885,21.622362708534826]]}},{"type":"Feature","properties":{"depth_m":4.0},"geometry":{"type":"LineString","coordinates":[[-158.08368827161715,21.62230481114344],[-158.0836265432221,21.622295315481487],[-158.083573891777,21.62220679012428],[-158.0836265432221,21.62209512866133],[-158.08372897423584,21.62214506172924],[-158.08368827161715,21.62230481114344]]}},{"type":"Feature","properties":{"depth_m":4.0},"geometry":{"type":"LineString","coordinates":[[-158.08733024692472,21.62085743711117],[-158.08739197531975,21.620747351213904],[-158.08726851852967,21.62060086039727],[-158.08716274545267,21.620787037038284],[-158.08733024692472,21.62085743711117]]}},{"type":"Feature","properties":{"depth_m":4.0},"geometry":{"type":"LineString","coordinates":[[-158.08640432099907,21.619988584476367],[-158.08632129232274,21.619953703705196],[-158.086342592604,21.61980963893183],[-158.0864351851966,21.619865959511475],[-158.08644715116932,21.6199537037052],[-158.08640432099907,21.619988584476367]]}},{"type":"Feature","properties":{"depth_m":4.0},"geometry":{"type":"LineString","coordinates":[[-158.0944907407498,21.61610479928678],[-158.09433641976216,21.616112271876393],[-158.09424382716958,21.61604622668485],[-158.09423962373347,21.615910493829848],[-158.09430555556463,21.615785181495514],[-158.09439814815718,21.61580716227473],[-158.09453544655724,21.615941358027367],[-158.09456716094152,21.616033950619936],[-158.0944907407498,21.61610479928678]]}},{"type":"Feature","properties":{"depth_m":4.0},"geometry":{"type":"LineString","coordinates":[[-158.09331790124392,21.61517102923428],[-158.09310025626132,21.615138888891803],[-158.0930259974411,21.615015432101714],[-158.09316358025632,21.6149731235573],[-158.09334876544145,21.614990073905734],[-158.09342362133395,21.61510802469428],[-158.09331790124392,21.61517102923428]]}},{"type":"Feature","properties":{"depth_m":6.0},"geometry":{"type":"LineString","coordinates":[[-158.08408842387274,21.62566358024672],[-158.08436728396262,21.625510134052732],[-158.08447280989242,21.625385802469022],[-158.0844412739541,21.625262345678937],[-158.08422623843688,21.625015432098763],[-158.08424382717254,21.62492730989278],[-158.08535493828333,21.624715020576218],[-158.08544892700885,21.6246450617285],[-158.08553467277648,21.624367283950804],[-158.08541666667836,21.624102438082062],[-158.08529698536148,21.62396604938302],[-158.0848192275447,21.623719135802848],[-158.08473852488683,21.62356481481524],[-158.08476311058624,21.623441358025154],[-158.08486111112296,21.623411729942692],[-158.08523148149322,21.62345211212804],[-158.08578703704862,21.623605142649676],[-158.08597222223375,21.623582304678088],[-158.08621519171783,21.623379629630108],[-158.08617082470676,21.62307098765489],[-158.08627287203618,21.622916666667283],[-158.08631172840649,21.62275316271394],[-158.0864660493941,21.62286782696947],[-158.08680555556685,21.622914334341395],[-158.087052469147,21.62256601153019],[-158.08712624414937,21.622577160494544],[-158.08720679013462,21.62268444207873],[-158.08729883321627,21.62266975308711],[-158.0880092592702,21.622307371823872],[-158.08813271606027,21.62220404057659],[-158.08844714928128,21.622083333334196],[-158.0886988026469,21.621867283951545],[-158.08862633780166,21.62162037037137],[-158.08878086420825,21.621653634414198],[-158.08898949177612,21.621496913581282],[-158.08907817217408,21.62097222222341],[-158.0893387770292,21.62057098765563],[-158.08949074075122,21.620033645846895],[-158.08962142035983,21.619768518520065],[-158.0896222624189,21.619398148149802],[-158.0900905378937,21.61884259259441],[-158.09006112613986,21.618719135804326],[-158.089891975319,21.618593427909346],[-158.08969038747682,21.618348765434064],[-158.08963920993284,21.618163580248932],[-158.09004629630664,21.618406090935324],[-158.09022456731333,21.61859567901424],[-158.09075617284964,21.61897192601989],[-158.09082777082833,21.61930555555724],[-158.09091049383724,21.619439635218757],[-158.09131172840503,21.61958636368538],[-158.0914351851951,21.619697085238656],[-158.0918364197629,21.619617505943854],[-158.09217592593563,21.619670840052102],[-158.09236111112077,21.619611172656715],[-158.0925462963059,21.619649079942377],[-158.09276234568853,21.619605321115813],[-158.0930092592687,21.61974262962915],[-158.09319444445384,21.619785391646722],[-158.09326651261355,21.61973765432254],[-158.09326810223052,21.619645061729976],[-158.09265392145198,21.61912037037211],[-158.0925889420707,21.619027777779543],[-158.09258870633246,21.618935185186977],[-158.09270061729347,21.618796998940063],[-158.09288228283262,21.618688271606803],[-158.0931018518613,21.618344679432838],[-158.09331790124392,21.618316547489446],[-158.0934159519062,21.618256172841498],[-158.09342233254043,21.618132716051413],[-158.09328524463544,21.61791666666876],[-158.09331790124395,21.617792261808034],[-158.09350308642905,21.61778690899992],[-158.0936415517609,21.617916666668762],[-158.09368827161418,21.6180517832668],[-158.0935767461441,21.618070987656367],[-158.09359567902163,21.618199063173506],[-158.09365740741663,21.618182031295262],[-158.0937191358117,21.618071323613083],[-158.0938425926018,21.61806072959947],[-158.0938042127232,21.61776234568115],[-158.0936496980133,21.617515432100976],[-158.09368827161418,21.617394289751374],[-158.09405864198445,21.61744482109583],[-158.09439814815718,21.617217662261],[-158.09452160494726,21.617069944348394],[-158.0946759259349,21.61716350900872],[-158.09479938272497,21.617114216061346]]}},{"type":"Feature","properties":{"depth_m":6.0},"geometry":{"type":"LineString","coordinates":[[-158.0944290123547,21.616810310556094],[-158.09436728395966,21.616826643669217],[-158.0942746913671,21.6167686235744],[-158.0942575800276,21.61668209876789],[-158.09430297069432,21.616620370372846],[-158.09441931479438,21.61668209876789],[-158.0944290123547,21.616810310556094]]}},{"type":"Feature","properties":{"depth_m":8.0},"geometry":{"type":"LineString","coordinates":[[-158.0850672219957,21.62566358024672],[-158.0847489204403,21.62532407407398],[-158.08471996836153,21.62520061728389],[-158.0856018518635,21.625178085129342],[-158.08612393408302,21.625077160493806],[-158.0862397547828,21.625015432098763],[-158.0863930769625,21.624830246913632],[-158.0864235212583,21.624614197530978],[-158.08631172840649,21.624249483868812],[-158.08621913581393,21.6242052530474],[-158.08612654322133,21.62436857517051],[-158.08599933699452,21.624151234568153],[-158.08612654322135,21.624109350458795],[-158.08625000001146,21.624135509200862],[-158.0864351851966,21.624062751631225],[-158.08665123457922,21.624078232878126],[-158.08691550489635,21.62375000000037],[-158.08757716050488,21.623421808929304],[-158.0878549382826,21.623138692069666],[-158.08831396113507,21.623101851852415],[-158.08827839189274,21.622916666667283],[-158.0883377094756,21.622824074074718],[-158.08850308643053,21.62273892664598],[-158.08884259260327,21.622697603564276],[-158.0893113279703,21.622299382716847],[-158.08954089555766,21.6218055555565],[-158.08969017535617,21.621126543211023],[-158.0901063840981,21.62054012345811],[-158.0900016367804,21.62001543210024],[-158.08977144978132,21.61952160493989],[-158.08984965659016,21.61930555555724],[-158.08995370371406,21.619194879353454],[-158.0901388888992,21.619148448159887],[-158.09026234568927,21.619172395357662],[-158.09043551467937,21.619398148149802],[-158.09038580247937,21.619486424461133],[-158.0902619301431,21.619552469137414],[-158.09032407408432,21.61968112738171],[-158.09066358025706,21.619889923816874],[-158.09091049383724,21.619808634975715],[-158.09121913581245,21.620035111895884],[-158.09131172840503,21.620169981008075],[-158.0917129629728,21.620213677150595],[-158.09220679013316,21.620058636552482],[-158.09239197531826,21.6200589143236],[-158.0925771605034,21.62013032520523],[-158.0928549382811,21.620050044418445],[-158.0930771180706,21.62020061728537],[-158.09314491256117,21.620601851853152],[-158.09322530865137,21.620707767231202],[-158.09331790124392,21.620739341846637],[-158.09359567902163,21.620672742406605],[-158.0937191358117,21.62024630633925],[-158.0940277777869,21.620011587854208],[-158.09430555556463,21.62008466830497],[-158.09440013313178,21.620324074075455],[-158.0945524691448,21.620502259900956],[-158.09470679013242,21.620532725298403],[-158.094799382725,21.620650403934363]]}},{"type":"Feature","properties":{"depth_m":8.0},"geometry":{"type":"LineString","coordinates":[[-158.09479938272497,21.62032773145238],[-158.09473765432992,21.62034354580512],[-158.09460486080553,21.62020061728537],[-158.09461419753984,21.620035069692502],[-158.09473765432992,21.620087944104192],[-158.094799382725,21.62027962963103]]}},{"type":"Feature","properties":{"depth_m":8.0},"geometry":{"type":"LineString","coordinates":[[-158.09479938272497,21.61992936479315],[-158.09462375724704,21.61986111111263],[-158.09473153042237,21.619645061729976],[-158.0945833333423,21.619212683942923],[-158.09449074074976,21.619078050821393],[-158.09430283373268,21.6189660493845],[-158.09436728395966,21.618663014987906],[-158.09479938272497,21.618615342891804]]}},{"type":"Feature","properties":{"depth_m":8.0},"geometry":{"type":"LineString","coordinates":[[-158.09479938272497,21.618108018841667],[-158.09424382716958,21.61816097534973],[-158.09408799538096,21.617916666668762],[-158.09447818542907,21.6175462962985],[-158.09479938272497,21.617375523602185]]}},{"type":"Feature","properties":{"depth_m":8.0},"geometry":{"type":"LineString","coordinates":[[-158.09479938272497,21.617630215319835],[-158.09473765432995,21.617642779769476],[-158.09469319593813,21.61773148148363],[-158.09479938272497,21.617899116172268]]}},{"type":"Feature","properties":{"depth_m":8.0},"geometry":{"type":"LineString","coordinates":[[-158.08520061729573,21.62370364543834],[-158.08510802470315,21.62369861384561],[-158.08504210433478,21.623657407407805],[-158.0851697530982,21.62364494663821],[-158.08520061729573,21.62370364543834]]}},{"type":"Feature","properties":{"depth_m":8.0},"geometry":{"type":"LineString","coordinates":[[-158.09418209877455,21.61944539176304],[-158.09411773420308,21.619429012347325],[-158.0941203703795,21.61936093453681],[-158.09418209877455,21.619386928872782],[-158.09418209877455,21.61944539176304]]}},{"type":"Feature","properties":{"depth_m":8.0},"geometry":{"type":"LineString","coordinates":[[-158.09405864198445,21.61909388830041],[-158.09393518519437,21.61899528934012],[-158.09393518519437,21.618877794275612],[-158.09401118379918,21.618873456791935],[-158.09407887063728,21.618935185186977],[-158.09405864198445,21.61909388830041]]}},{"type":"Feature","properties":{"depth_m":8.0},"geometry":{"type":"LineString","coordinates":[[-158.09041666667687,21.61906737158551],[-158.0902932098868,21.619010742902844],[-158.0902647587609,21.618811728396892],[-158.09040017937372,21.618904320989458],[-158.09041666667687,21.61906737158551]]}},{"type":"Feature","properties":{"depth_m":10.0},"geometry":{"type":"LineString","coordinates":[[-158.08957440061698,21.62566358024672],[-158.0891512345785,21.625480191093114],[-158.08889270588145,21.62550925925911],[-158.08894766567994,21.625293209876457],[-158.0888734568008,21.62519591648201],[-158.0887480811333,21.62513888888885],[-158.0880092592702,21.62495834582631],[-158.08782407408506,21.62483103974395],[-158.0876080247024,21.624887683308874],[-158.08750965909738,21.62476851851859],[-158.08758650187934,21.624614197530978],[-158.087592876563,21.624398148148327],[-158.08763888889993,21.624351412094736],[-158.08804012346772,21.62440413720802],[-158.08834876544293,21.62422909199545],[-158.08859567902311,21.624336678457507],[-158.08901012800857,21.62408950617311],[-158.08887934098234,21.62378086419789],[-158.08939814815866,21.623563691508224],[-158.08953600460234,21.62341049382763],[-158.08952640079815,21.62304012345737],[-158.08970679013387,21.622803264712324],[-158.0902283126166,21.621527777778805],[-158.09075617284964,21.620427025361316],[-158.09097222223224,21.620352281172867],[-158.09134259260253,21.62042426344191],[-158.0917129629728,21.620433475916794],[-158.09195987655298,21.62033164826302],[-158.0922993827257,21.620472383354233],[-158.09251543210837,21.620353685109755],[-158.092772201634,21.62057098765563],[-158.0928069658342,21.620941358025892],[-158.09291666667616,21.621072630780215],[-158.09307098766376,21.62109046738737],[-158.0933983850066,21.62091049382837],[-158.09353395062658,21.620883107585275],[-158.09381172840426,21.620929437812336],[-158.09405864198445,21.62112667907327],[-158.09433641976216,21.621102231741776],[-158.09450638044336,21.621219135803585],[-158.09464506173737,21.621613307039155],[-158.09479938272497,21.621754158234097]]}},{"type":"Feature","properties":{"depth_m":10.0},"geometry":{"type":"LineString","coordinates":[[-158.08805798209784,21.62566358024672],[-158.08844135803548,21.625440198728057],[-158.08870484620132,21.625570987654154],[-158.0886710046982,21.62566358024672]]}},{"type":"Feature","properties":{"depth_m":10.0},"geometry":{"type":"LineString","coordinates":[[-158.08570409603914,21.625663580246723],[-158.08598787344954,21.625570987654154],[-158.0864660493941,21.625515822568868],[-158.08683641976435,21.62538652062647],[-158.08692901235693,21.625412368438738],[-158.08696635088896,21.625478395061588],[-158.08688082470798,21.62566358024672]]}},{"type":"Feature","properties":{"depth_m":10.0},"geometry":{"type":"LineString","coordinates":[[-158.09479938272497,21.619230456714867],[-158.09461419753984,21.619006972435745],[-158.09456527899556,21.618873456791935],[-158.09468111180644,21.618873456791935],[-158.09479938272497,21.619005007584082]]}},{"type":"Feature","properties":{"depth_m":10.0},"geometry":{"type":"LineString","coordinates":[[-158.0872993827272,21.62419347390525],[-158.08720679013464,21.624158698974274],[-158.08717054326002,21.62408950617311],[-158.08726851852967,21.623955388441747],[-158.08732385415917,21.623996913580545],[-158.0872993827272,21.62419347390525]]}},{"type":"Feature","properties":{"depth_m":10.0},"geometry":{"type":"LineString","coordinates":[[-158.09146604939264,21.62143585521335],[-158.09162037038024,21.621266789261732],[-158.09162037038024,21.621163852146932],[-158.09137345680006,21.62093090347311],[-158.09125000000998,21.620905721826514],[-158.09119164069054,21.62097222222341],[-158.09118993750297,21.621095679013504],[-158.0913423005891,21.621373456791197],[-158.09146604939264,21.62143585521335]]}},{"type":"Feature","properties":{"depth_m":10.0},"geometry":{"type":"LineString","coordinates":[[-158.09023148149177,21.6198985169395],[-158.09010802470164,21.619863717354676],[-158.09001507460877,21.61973765432254],[-158.09002344560258,21.6196759259275],[-158.09014885479323,21.61973765432254],[-158.09023148149177,21.6198985169395]]}},{"type":"Feature","properties":{"depth_m":12.0},"geometry":{"type":"LineString","coordinates":[[-158.09115241621586,21.62566358024672],[-158.09124579987773,21.625601851851673],[-158.09113435084015,21.625447530864065],[-158.09102453814154,21.62513888888885],[-158.09078703704714,21.62518804796902],[-158.0905016497533,21.62513888888885],[-158.09039117612747,21.62486111111115],[-158.09020061729424,21.62472786479586],[-158.08998456791159,21.624691338256937],[-158.0899395057965,21.62461419753098],[-158.08996037814734,21.62442901234585],[-158.09009456910417,21.624274691358238],[-158.09008173451792,21.62408950617311],[-158.09020527151,21.623811728395413],[-158.0902685732768,21.623379629630108],[-158.09055855670715,21.62285493827224],[-158.09097222223227,21.62187719705371],[-158.09106481482485,21.62182193072796],[-158.0911265432199,21.621837091012644],[-158.09140432099758,21.62208289786051],[-158.09192959709725,21.62211419753172],[-158.0919955932163,21.621959876544107],[-158.0919425690347,21.621589506173848],[-158.09248456791084,21.620731727250995],[-158.0925771605034,21.62080740637467],[-158.09277849269483,21.62128086419863],[-158.09288580247863,21.621349155342283],[-158.09316358025632,21.621387541217068],[-158.0933559582901,21.621188271606066],[-158.09353395062658,21.621098972456423],[-158.09375000000924,21.621233081780368],[-158.0942746913671,21.621297808712434],[-158.09444308151524,21.62165123456889],[-158.0945833333423,21.62214616868362],[-158.0946759259349,21.622218254773536],[-158.09479938272497,21.62211312939731]]}},{"type":"Feature","properties":{"depth_m":12.0},"geometry":{"type":"LineString","coordinates":[[-158.09479938272497,21.622385252740926],[-158.0946759259349,21.62240757892242],[-158.09445987655224,21.62257151087409],[-158.09432789065264,21.622793209877194],[-158.0943558649767,21.62288580246976],[-158.09445987655224,21.622950901759538],[-158.09479938272497,21.622891487979828]]}},{"type":"Feature","properties":{"depth_m":12.0},"geometry":{"type":"LineString","coordinates":[[-158.08992283951653,21.625482615825852],[-158.08950893037252,21.6253549382715],[-158.08955246914627,21.625143187658146],[-158.08970679013387,21.625120634340444],[-158.09000866782384,21.62532407407398],[-158.09000642045967,21.625416666666545],[-158.08992283951653,21.625482615825852]]}},{"type":"Feature","properties":{"depth_m":14.0},"geometry":{"type":"LineString","coordinates":[[-158.0923899601622,21.62566358024672],[-158.0923573728578,21.62554012345663],[-158.09195987655298,21.624967166816838],[-158.09165123457777,21.624774586434675],[-158.09140432099758,21.62470278862187],[-158.09118827161493,21.624725149878046],[-158.0910214371958,21.624675925926024],[-158.09097105228977,21.624614197530978],[-158.09128470354926,21.62430555555576],[-158.0915586419852,21.623746720042746],[-158.09168209877527,21.623665839603504],[-158.09202160494803,21.62358702830039],[-158.0922685185282,21.62335475135974],[-158.09248456791084,21.62342690208331],[-158.0927006172935,21.623839404359153],[-158.0928549382811,21.623942887256533],[-158.09319444445384,21.62379822616748],[-158.09337962963897,21.623624477185817],[-158.09353395062658,21.623616017564363],[-158.09353395062658,21.62341851900389],[-158.09339083366578,21.623101851852415],[-158.0930092592687,21.62286060455933],[-158.09273148149103,21.622586096503394],[-158.09248276054794,21.622546296297024],[-158.09248456791084,21.62246743878316],[-158.09304012346624,21.622317870216065],[-158.09378086420676,21.62225823488513],[-158.09398090601667,21.62211419753172],[-158.09424382716958,21.621752787257186],[-158.09430555556463,21.621814091259477],[-158.094490514366,21.62233024691437],[-158.0941694497491,21.622762345679675],[-158.09413980807528,21.62304012345737],[-158.09417867361253,21.623317901235065],[-158.09424382716958,21.62338597738554],[-158.09436728395966,21.623396597331496],[-158.09479938272497,21.623163647122006]]}},{"type":"Feature","properties":{"depth_m":14.0},"geometry":{"type":"LineString","coordinates":[[-158.0918364197629,21.62467818171095],[-158.0918707907706,21.624614197530978],[-158.09180555556537,21.624592975065855],[-158.09178971967714,21.6246450617285],[-158.0918364197629,21.62467818171095]]}},{"type":"Feature","properties":{"depth_m":14.0},"geometry":{"type":"LineString","coordinates":[[-158.09165123457777,21.62428068622513],[-158.091687727391,21.62424382716072],[-158.0915779758504,21.62424382716072],[-158.09158950618271,21.624280253148985],[-158.09165123457777,21.62428068622513]]}},{"type":"Feature","properties":{"depth_m":14.0},"geometry":{"type":"LineString","coordinates":[[-158.09251543210837,21.62310620182391],[-158.0924228395158,21.623109390955545],[-158.0922685185282,21.622990915791277],[-158.09205246914553,21.62303808897047],[-158.0918672839604,21.62291660534456],[-158.09165123457777,21.623032771612294],[-158.09154606032237,21.623009259259845],[-158.09153187082947,21.622947530864806],[-158.09180555556537,21.622718523834415],[-158.09208333334306,21.622737121243247],[-158.0922993827257,21.622664346155585],[-158.0925621360912,21.62300925925985],[-158.09251543210837,21.62310620182391]]}},{"type":"Feature","properties":{"depth_m":14.0},"geometry":{"type":"LineString","coordinates":[[-158.094089506182,21.621559815598246],[-158.09408735812428,21.62155864197633],[-158.09408950618197,21.621527647667765],[-158.09409354118026,21.62155864197632],[-158.094089506182,21.621559815598246]]}},{"type":"Feature","properties":{"depth_m":16.0},"geometry":{"type":"LineString","coordinates":[[-158.09259381279554,21.62566358024672],[-158.09238372854182,21.625293209876457],[-158.09235762341038,21.62513888888885],[-158.09267779914745,21.624274691358238],[-158.09279320988605,21.624218734906236],[-158.09350308642905,21.624389334639027],[-158.09361786740817,21.624367283950804],[-158.09385549522685,21.623842592592936],[-158.09370596203746,21.623256172840023],[-158.09378086420676,21.62304138631324],[-158.09390432099684,21.62288657077018],[-158.09399691358942,21.622853299349263],[-158.0940331658224,21.623317901235065],[-158.09415123457703,21.623491841271342],[-158.0944290123547,21.62354761615484],[-158.0945524691448,21.623518299008904],[-158.0946759259349,21.623418646241294],[-158.09479938272497,21.62345329116365]]}},{"type":"Feature","properties":{"depth_m":16.0},"geometry":{"type":"LineString","coordinates":[[-158.09399691358942,21.62427825875143],[-158.09400539711748,21.624274691358238],[-158.09399691358942,21.624242284479156],[-158.09398348073802,21.624274691358238],[-158.09399691358942,21.62427825875143]]}},{"type":"Feature","properties":{"depth_m":18.0},"geometry":{"type":"LineString","coordinates":[[-158.09362274537165,21.62566358024672],[-158.09368827161418,21.625571839667888],[-158.0936725384472,21.625478395061588],[-158.0935648148241,21.62523649068479],[-158.09347222223153,21.625190544846337],[-158.09332538081526,21.62529320987646],[-158.09327990405643,21.625385802469022],[-158.09350068494706,21.62566358024672]]}},{"type":"Feature","properties":{"depth_m":18.0},"geometry":{"type":"LineString","coordinates":[[-158.09286262808874,21.62566358024672],[-158.0928915921416,21.6253549382715],[-158.09315002638704,21.624830246913632],[-158.09344135803403,21.62457377308652],[-158.0942746913671,21.62458076391552],[-158.09433255982822,21.624521604938412],[-158.09433514077432,21.62442901234585],[-158.09416654667962,21.624027777778064],[-158.09403095352428,21.623935185185502],[-158.0942746913671,21.623706245340145],[-158.09479938272497,21.623621951297224]]}},{"type":"Feature","properties":{"depth_m":18.0},"geometry":{"type":"LineString","coordinates":[[-158.09387345679932,21.6250937480215],[-158.09399691358942,21.624787197231896],[-158.09378086420674,21.62484132132187],[-158.09359567902163,21.62481597251761],[-158.09352367140593,21.62486111111115],[-158.09368827161418,21.625057025824248],[-158.09387345679932,21.6250937480215]]}},{"type":"Feature","properties":{"depth_m":18.0},"geometry":{"type":"LineString","coordinates":[[-158.09464506173737,21.62421894137194],[-158.09471738442596,21.624151234568153],[-158.09468593025014,21.624027777778064],[-158.0945833333423,21.62396683433058],[-158.09445987655224,21.623980617623985],[-158.09442927944525,21.624027777778064],[-158.09445902865798,21.62412037037063],[-158.09464506173737,21.62421894137194]]}},{"type":"Feature","properties":{"depth_m":20.0},"geometry":{"type":"LineString","coordinates":[[-158.09479938272497,21.62554882233023],[-158.09456744194537,21.625385802469022],[-158.0945298932773,21.625231481481414],[-158.0945524691448,21.625149245944236],[-158.09479938272497,21.625072653204878]]}},{"type":"Feature","properties":{"depth_m":20.0},"geometry":{"type":"LineString","coordinates":[[-158.09479938272497,21.624835120207976],[-158.0947218743325,21.624490740740892],[-158.094799382725,21.624323411404934]]}}]}