{"type":"FeatureCollection","features":[{"type":"Feature","properties":{"depth_m":4.0},"geometry":{"type":"LineString","coordinates":[[-158.09047839507193,21.61847255901013],[-158.09094135803477,21.618629224852285],[-158.09137345680006,21.619053416056495],[-158.09152777778763,21.619109622789676],[-158.09168209877527,21.619085613031338],[-158.09177469136785,21.61900416761837],[-158.09202040795014,21.61847222222415],[-158.09195987655298,21.618157132210865],[-158.0921352403866,21.618009259261328],[-158.09205543950637,21.617824074076193],[-158.09211419754058,21.61778397604155],[-158.0922685185282,21.61784828887715],[-158.09259471053838,21.61745370370593]]}},{"type":"Feature","properties":{"depth_m":6.0},"geometry":{"type":"LineString","coordinates":[[-158.09047839507193,21.618791440556887],[-158.09077778365003,21.61899691358202],[-158.09081804470375,21.619274691359713],[-158.09091049383724,21.619439635218754],[-158.09131172840503,21.61958636368538],[-158.09145789775982,21.61970679012502],[-158.0918364197629,21.61961750594385],[-158.09217592593563,21.6196708400521],[-158.09236111112077,21.619611172656715],[-158.0925462963059,21.619649079942374],[-158.09276234568853,21.619605321115813],[-158.0930092592687,21.619742629629148],[-158.09322530865137,21.619776860754534],[-158.09326810223052,21.619645061729976],[-158.09265392145198,21.619120370372105],[-158.09257925556452,21.618966049384497],[-158.09270061729347,21.61879699894006],[-158.09288228283262,21.6186882716068],[-158.0931018518613,21.618344679432838],[-158.09331790124392,21.618316547489442],[-158.0934159519062,21.618256172841498],[-158.09342233254043,21.61813271605141],[-158.09328524463544,21.61791666666876],[-158.09331790124395,21.61779226180803],[-158.09350308642905,21.617786908999918],[-158.0936415517609,21.617916666668762],[-158.09368827161418,21.618051783266797],[-158.0935767461441,21.618070987656367],[-158.09359567902163,21.618199063173506],[-158.09365740741663,21.618182031295262],[-158.0937191358117,21.618071323613083],[-158.0938425926018,21.61806072959947],[-158.0938117284043,21.617785519365484],[-158.09365779132156,21.617546296298496],[-158.09364853700265,21.61745370370593]]}},{"type":"Feature","properties":{"depth_m":6.0},"geometry":{"type":"LineString","coordinates":[[-158.0951753930303,21.61745370370593],[-158.0952577898499,21.61776234568115],[-158.09557098766302,21.6176794747469],[-158.0958732822558,21.617824074076196],[-158.09621913581097,21.6184239298752],[-158.09631172840355,21.61848796232488],[-158.09646604939115,21.61850802862085],[-158.0964689941076,21.618780864199366],[-158.09666458088634,21.61912037037211],[-158.0968055555639,21.619180673772647],[-158.09714506173663,21.619108515135515],[-158.09753383637866,21.618811728396892],[-158.09758576410323,21.618595679014238],[-158.09772061497824,21.61841049382911],[-158.09781318776749,21.618040123458844],[-158.09777395197247,21.61745370370593]]}},{"type":"Feature","properties":{"depth_m":8.0},"geometry":{"type":"LineString","coordinates":[[-158.09047839507193,21.6197894215742],[-158.09066358025706,21.619889923816874],[-158.09091049383724,21.619808634975715],[-158.09121913581245,21.62003511189588],[-158.09131172840503,21.620169981008072],[-158.09168209877527,21.620214249400377],[-158.09220679013316,21.62005863655248],[-158.0923919753183,21.620058914323597],[-158.0925771605034,21.62013032520523],[-158.0928549382811,21.62005004441844],[-158.0930771180706,21.620200617285366],[-158.09314491256117,21.62060185185315],[-158.09328703704642,21.620737290099747],[-158.09360458209073,21.620663580248195],[-158.0937191358117,21.620246306339247],[-158.09387345679932,21.620165561048307],[-158.0939660493919,21.6200378846716],[-158.09424382716958,21.62005414750408],[-158.09435518137911,21.620138888890324],[-158.09440013313178,21.620324074075455],[-158.0945524691448,21.620502259900952],[-158.09470679013242,21.6205327252984],[-158.09482303707625,21.62066358024819],[-158.09507716050268,21.62070859912108],[-158.09518951665106,21.621033950618454],[-158.0952905133291,21.621157407408543],[-158.09560185186058,21.621285615981414],[-158.09578703704568,21.621274616402037],[-158.0960030864283,21.62117028403114],[-158.09625000000847,21.62112409642034],[-158.09643503751803,21.62100308642093],[-158.09649691358868,21.620596930493434],[-158.0967129629713,21.62029038605371],[-158.09689848952058,21.620169753087843],[-158.09716366267097,21.619799382717588],[-158.09715420343886,21.61973765432254],[-158.0968267174897,21.619614197532453],[-158.096788975876,21.61955246913741],[-158.09681414512286,21.619490740742368],[-158.09705246914407,21.61936910172773],[-158.09736111111928,21.619526083286843],[-158.09754629630442,21.61956008205612],[-158.09779320988457,21.619412252756195],[-158.09785013682952,21.619058641977063],[-158.09816358025483,21.618704660847825],[-158.0983935960645,21.618256172841498],[-158.09855235140162,21.618070987656367],[-158.09857297216848,21.617947530866278],[-158.0985060477296,21.617731481483627],[-158.09868123274444,21.61745370370593]]}},{"type":"Feature","properties":{"depth_m":8.0},"geometry":{"type":"LineString","coordinates":[[-158.0949877887143,21.617453703705934],[-158.09495370371258,21.617588013081857],[-158.09473765432995,21.617642779769472],[-158.09469319593813,21.617731481483627],[-158.09475723242306,21.617854938273712],[-158.09493897347164,21.618009259261324],[-158.09493151089566,21.618070987656367],[-158.09445987655226,21.618169251106576],[-158.09421296297205,21.61814621586412],[-158.09409748464626,21.617885802471235],[-158.09447818542907,21.617546296298496],[-158.09466532397192,21.61745370370593]]}},{"type":"Feature","properties":{"depth_m":8.0},"geometry":{"type":"LineString","coordinates":[[-158.09476851852745,21.620355332388826],[-158.0945890782231,21.620169753087843],[-158.09458875543106,21.62007716049528],[-158.09464506173737,21.620021548603525],[-158.09476249594212,21.620138888890324],[-158.0948026779873,21.62029320987793],[-158.09476851852745,21.620355332388826]]}},{"type":"Feature","properties":{"depth_m":8.0},"geometry":{"type":"LineString","coordinates":[[-158.0955401234655,21.620050228200718],[-158.09520061729276,21.62004971669765],[-158.09507716050268,21.619933080756372],[-158.09489197531755,21.61996630384107],[-158.09464506173737,21.61989058957067],[-158.09463128658822,21.61979938271758],[-158.0947294914656,21.619675925927496],[-158.09471174231027,21.619521604939887],[-158.0945216049473,21.619111273376674],[-158.09430283373268,21.618966049384497],[-158.09436728395968,21.618663014987906],[-158.09476851852745,21.61863350768349],[-158.09502425707169,21.61847222222415],[-158.09516975309523,21.61830618648375],[-158.09535493828037,21.618269062306034],[-158.09548161653913,21.618348765434064],[-158.09557536053418,21.618595679014238],[-158.0955387250736,21.618780864199366],[-158.09541666667542,21.61883653749299],[-158.09526234568781,21.618638952482115],[-158.09520061729276,21.61860121590115],[-158.0951601276506,21.618626543211757],[-158.09523148149032,21.618777325900478],[-158.0953745179892,21.61887345679193],[-158.09538968915436,21.619243827162194],[-158.09547839507044,21.619297090639268],[-158.09581790124318,21.61924425153733],[-158.0959722222308,21.61928196544466],[-158.09618827161344,21.619441099595466],[-158.09627461270253,21.619645061729976],[-158.09626420854084,21.619861111112627],[-158.09621913581097,21.61992300886395],[-158.0960956790209,21.619951692983754],[-158.09572530865063,21.61989905095256],[-158.0955401234655,21.620050228200718]]}},{"type":"Feature","properties":{"depth_m":8.0},"geometry":{"type":"LineString","coordinates":[[-158.09418209877455,21.619445391763037],[-158.09411773420308,21.61942901234732],[-158.0941203703795,21.61936093453681],[-158.09418209877455,21.619386928872782],[-158.09418209877455,21.619445391763037]]}},{"type":"Feature","properties":{"depth_m":8.0},"geometry":{"type":"LineString","coordinates":[[-158.09405864198445,21.61909388830041],[-158.09393518519437,21.61899528934012],[-158.09393518519437,21.61887779427561],[-158.09401118379918,21.61887345679193],[-158.09407887063728,21.618935185186974],[-158.09405864198445,21.61909388830041]]}},{"type":"Feature","properties":{"depth_m":10.0},"geometry":{"type":"LineString","coordinates":[[-158.09047839507193,21.621038313740748],[-158.0907097054176,21.620478395063063],[-158.0908796296397,21.62037218540962],[-158.09168209877527,21.620434963219257],[-158.09195987655298,21.620331648263015],[-158.0922993827257,21.620472383354233],[-158.09251543210837,21.62035368510975],[-158.092772201634,21.62057098765563],[-158.0928069658342,21.62094135802589],[-158.09291666667616,21.621072630780215],[-158.09307098766376,21.621090467387365],[-158.0933983850066,21.62091049382837],[-158.09353395062658,21.620883107585275],[-158.09381172840426,21.620929437812336],[-158.09405864198445,21.621126679073267],[-158.09436728395968,21.621114167590996],[-158.09452596963325,21.621250000001105],[-158.0946759259349,21.621660662926416],[-158.09510802470018,21.62202349887854],[-158.0952314814903,21.622044872114213],[-158.09550925926797,21.621905515381435],[-158.09587962963826,21.621796411434442],[-158.09612654321842,21.621899001930462],[-158.0962500000085,21.62190313934747],[-158.0964043209961,21.62161623560189],[-158.09689814815644,21.621372265864977],[-158.0972793857258,21.620725308643237],[-158.09733024692176,21.62050718340505],[-158.0975154321069,21.6205445449798],[-158.09785493827962,21.620417120202248],[-158.09783353282674,21.620138888890324],[-158.09795308865085,21.620046296297758],[-158.09804012346476,21.619845102973674],[-158.0982253086499,21.619796513236423],[-158.09831790124247,21.619682631405723],[-158.0983075553735,21.619583333334933],[-158.09817907366042,21.6193981481498],[-158.09822194492983,21.61930555555724],[-158.09831790124247,21.619270925394172],[-158.0985030864276,21.619318991672614],[-158.09884259260033,21.6195000864885],[-158.09900100717638,21.619459876544845],[-158.09892445819813,21.61933641975476],[-158.0985030864276,21.61907571234123],[-158.09845094736056,21.61887345679193],[-158.0988117284028,21.618589375303653],[-158.0990895061805,21.61861717775491],[-158.09901765191478,21.618287037039018],[-158.09927244944842,21.617978395063798],[-158.0993672839582,21.617588665722323],[-158.09951174473906,21.61751543210098],[-158.09954175544527,21.61745370370593]]}},{"type":"Feature","properties":{"depth_m":10.0},"geometry":{"type":"LineString","coordinates":[[-158.1022789164437,21.61745370370593],[-158.10233024692027,21.617492707760313],[-158.10240174422415,21.61745370370593]]}},{"type":"Feature","properties":{"depth_m":10.0},"geometry":{"type":"LineString","coordinates":[[-158.10085046155749,21.61745370370593],[-158.10097222222933,21.617618825365224],[-158.1014969135872,21.617895351723675],[-158.10152187790356,21.617854938273712],[-158.10144809117503,21.61760802469354],[-158.10148903163767,21.617515432100973],[-158.1019290123525,21.617545803571154],[-158.10198729719073,21.61745370370593]]}},{"type":"Feature","properties":{"depth_m":10.0},"geometry":{"type":"LineString","coordinates":[[-158.10000702365468,21.617453703705934],[-158.10006166697434,21.61745370370593]]}},{"type":"Feature","properties":{"depth_m":10.0},"geometry":{"type":"LineString","coordinates":[[-158.09146604939264,21.621435855213345],[-158.09162037038024,21.621266789261725],[-158.09162037038024,21.621163852146932],[-158.09137345680006,21.620930903473102],[-158.09125000000998,21.620905721826514],[-158.09119164069054,21.62097222222341],[-158.09118993750297,21.6210956790135],[-158.0913423005891,21.621373456791193],[-158.09146604939264,21.621435855213345]]}},{"type":"Feature","properties":{"depth_m":10.0},"geometry":{"type":"LineString","coordinates":[[-158.09692901235394,21.62094162593957],[-158.0967977991523,21.62094135802589],[-158.09675973769328,21.620817901235803],[-158.09689814815644,21.62080855733409],[-158.09694714723867,21.620879629630846],[-158.09692901235394,21.62094162593957]]}},{"type":"Feature","properties":{"depth_m":10.0},"geometry":{"type":"LineString","coordinates":[[-158.09489197531755,21.61924481534691],[-158.09479938272497,21.619230456714863],[-158.09470679013242,21.61914411823548],[-158.09457403042217,21.618935185186974],[-158.0945833333423,21.618851406999802],[-158.09475597947608,21.618935185186974],[-158.09489294575616,21.619151234569628],[-158.09489197531755,21.61924481534691]]}},{"type":"Feature","properties":{"depth_m":12.0},"geometry":{"type":"LineString","coordinates":[[-158.09047839507193,21.626782626602363],[-158.0908487654422,21.626842696496503],[-158.09100220345533,21.626743827159977],[-158.0910855887236,21.626527777777326],[-158.0910625727988,21.626435185184757],[-158.0910030864298,21.626376207890157],[-158.09081790124466,21.626352470180255],[-158.0906814501801,21.626219135802106],[-158.09084012514973,21.626064814814498],[-158.0911052825819,21.626003086419455],[-158.09113930587952,21.62569444444424],[-158.09124579987773,21.625601851851673],[-158.09113435084015,21.625447530864065],[-158.09102453814154,21.625138888888845],[-158.09078703704714,21.62518804796902],[-158.09047839507193,21.62511348598348]]}},{"type":"Feature","properties":{"depth_m":12.0},"geometry":{"type":"LineString","coordinates":[[-158.09047839507193,21.623009230878974],[-158.09092053613435,21.621959876544107],[-158.09102607897552,21.621836419754022],[-158.0911265432199,21.62183709101264],[-158.09137345680006,21.622073858495746],[-158.09192959709725,21.622114197531715],[-158.0919955932163,21.621959876544107],[-158.0919425690347,21.621589506173844],[-158.09248456791084,21.620731727250995],[-158.0925771605034,21.620807406374666],[-158.09277849269483,21.621280864198628],[-158.09288580247863,21.62134915534228],[-158.09316358025632,21.621387541217068],[-158.0933559582901,21.621188271606062],[-158.09353395062658,21.62109897245642],[-158.09375000000924,21.621233081780368],[-158.09399691358942,21.621291697972545],[-158.09421296297205,21.621275788121615],[-158.09430555556463,21.62132714407778],[-158.09460527212764,21.622175925926758],[-158.09470679013242,21.62221109508679],[-158.09486111112003,21.622085203986252],[-158.09495801813384,21.62220679012428],[-158.09488345746325,21.62236111111189],[-158.0946759259349,21.622407578922417],[-158.09439998187338,21.622638888889586],[-158.09432789065264,21.622793209877194],[-158.09439814815718,21.622924143057876],[-158.0945216049473,21.622952605743198],[-158.09523148149026,21.62287038490458],[-158.09563271605805,21.623086680014914],[-158.09591049383573,21.623061244513337],[-158.09621913581097,21.623104719478146],[-158.09625882607338,21.622978395062326],[-158.09604211259517,21.62270061728463],[-158.0960536043704,21.62257716049454],[-158.09618827161344,21.622551538332445],[-158.09677469136636,21.622651733354786],[-158.09686728395894,21.62251512188943],[-158.09705521831708,21.622453703704455],[-158.09712264992325,21.6222376543218],[-158.09743109255948,21.621774691358976],[-158.09742796616425,21.621589506173844],[-158.09748456790936,21.62150076964459],[-158.09794373802347,21.6215277777788],[-158.0978986442267,21.621250000001105],[-158.09806693016043,21.62094135802589],[-158.0979865356586,21.620663580248195],[-158.09800043325447,21.620478395063063],[-158.0981018518598,21.620363438522727],[-158.09844135803255,21.62032629245062],[-158.09849958965154,21.62026234568041],[-158.09848149830623,21.620169753087843],[-158.0983233313113,21.620015432100235],[-158.09845979448565,21.619645061729976],[-158.0983873826812,21.6193981481498],[-158.09856481482262,21.619423049663734],[-158.09884259260033,21.6196107721042],[-158.09918209877307,21.61964047936724],[-158.0992616599757,21.61933641975476],[-158.09958333334083,21.619232282171232],[-158.0994984374986,21.618935185186974],[-158.09964506173588,21.618363175885513],[-158.09998456790862,21.618161204860264],[-158.10026234568633,21.618058200732563],[-158.10045457214156,21.61776234568115],[-158.10072530864915,21.61764357350084],[-158.10081790124173,21.617650248878952],[-158.10115740741446,21.617800809201007],[-158.101898148155,21.618269562759846],[-158.10211419753762,21.61834985493616],[-158.1023611111178,21.618365528456984],[-158.10245370371038,21.618216487637675],[-158.1027623456856,21.61809134409425],[-158.10285493827814,21.61784475183316],[-158.1033487654385,21.617792600165565],[-158.1035339506236,21.617683655457846],[-158.10365740741372,21.61752222583812],[-158.10381172840133,21.61756530144413],[-158.10396604938893,21.617533096196045]]}},{"type":"Feature","properties":{"depth_m":12.0},"geometry":{"type":"LineString","coordinates":[[-158.09770061729202,21.622053264362464],[-158.09770061729202,21.621958720196453],[-158.09760802469944,21.621864961361894],[-158.09761051255856,21.621959876544107],[-158.09770061729202,21.622053264362464]]}},{"type":"Feature","properties":{"depth_m":12.0},"geometry":{"type":"LineString","coordinates":[[-158.0967129629713,21.621867339655907],[-158.09661592805963,21.6218055555565],[-158.09665123457629,21.62171380302196],[-158.09671723994785,21.621712962963933],[-158.09676678001682,21.621774691358976],[-158.0967129629713,21.621867339655907]]}},{"type":"Feature","properties":{"depth_m":12.0},"geometry":{"type":"LineString","coordinates":[[-158.09720679013168,21.621416874356044],[-158.09710339571456,21.62134259259367],[-158.09714506173663,21.62122623279387],[-158.09724607314445,21.621280864198628],[-158.09720679013168,21.621416874356044]]}},{"type":"Feature","properties":{"depth_m":12.0},"geometry":{"type":"LineString","coordinates":[[-158.09976851852596,21.619439366523746],[-158.09974010996126,21.61936728395228],[-158.0996759259334,21.61934740057159],[-158.0996919522243,21.61942901234732],[-158.09976851852596,21.619439366523746]]}},{"type":"Feature","properties":{"depth_m":12.0},"geometry":{"type":"LineString","coordinates":[[-158.09930555556315,21.6189983080157],[-158.0992129629706,21.618955270336304],[-158.0992129629706,21.61887511077602],[-158.09936991450041,21.618935185186974],[-158.09930555556315,21.6189983080157]]}},{"type":"Feature","properties":{"depth_m":14.0},"geometry":{"type":"LineString","coordinates":[[-158.09047839507195,21.628188776412962],[-158.09094474132132,21.62804012345589],[-158.09047839507193,21.627974583957037]]}},{"type":"Feature","properties":{"depth_m":14.0},"geometry":{"type":"LineString","coordinates":[[-158.09047839507193,21.627339547977925],[-158.09091049383724,21.627125979858597],[-158.09103395062732,21.627122389818663],[-158.09119210842783,21.627237654320325],[-158.0912178878486,21.627361111110414],[-158.09114780293942,21.62754629629554],[-158.09128086420748,21.627666957345586],[-158.09181792218078,21.627268518517848],[-158.09183231113332,21.626929012345105],[-158.09189814815792,21.62684172821912],[-158.09208333334306,21.626819384011533],[-158.0922993827257,21.62696417151656],[-158.0925189660412,21.626743827159977],[-158.09239506410623,21.626527777777326],[-158.09225165673914,21.625972222221932],[-158.09238817998917,21.625601851851673],[-158.09205246914553,21.62506805070626],[-158.09165123457777,21.624774586434675],[-158.09140432099758,21.62470278862187],[-158.09118827161493,21.624725149878046],[-158.0910214371958,21.62467592592602],[-158.09097105228977,21.624614197530978],[-158.09128470354926,21.624305555555758],[-158.0915586419852,21.623746720042742],[-158.09168209877527,21.6236658396035],[-158.09202160494803,21.623587028300385],[-158.0922685185282,21.62335475135974],[-158.09248456791084,21.623426902083303],[-158.0927006172935,21.623839404359146],[-158.0928549382811,21.623942887256526],[-158.09319444445384,21.623798226167477],[-158.09337962963897,21.623624477185817],[-158.09353395062658,21.623616017564363],[-158.09353395062658,21.623418519003888],[-158.09339083366578,21.62310185185241],[-158.0930092592687,21.622860604559328],[-158.09273148149103,21.62258609650339],[-158.09248276054794,21.622546296297024],[-158.09249976143363,21.622453703704455],[-158.09304012346624,21.622317870216065],[-158.09378086420676,21.62225823488513],[-158.09398090601667,21.622114197531715],[-158.09424382716958,21.621752787257183],[-158.09430555556463,21.621814091259473],[-158.094490514366,21.622330246914366],[-158.09416067978196,21.622793209877194],[-158.09415123457703,21.62318729532824],[-158.09423265148786,21.623379629630108],[-158.09439814815718,21.62338780211168],[-158.09492283951505,21.62308098335427],[-158.0951388888977,21.62307022865548],[-158.0953858024779,21.623161615191282],[-158.09560185186055,21.623412927894933],[-158.0957515437568,21.623379629630108],[-158.09579759170845,21.62325617284002],[-158.09587962963823,21.623189040222815],[-158.0960030864283,21.623187690801398],[-158.09615740741594,21.623256413527628],[-158.09637345679857,21.62321592023244],[-158.09677469136636,21.623474273438287],[-158.09702160494655,21.623558014932097],[-158.09710042899556,21.623379629630108],[-158.09694242336832,21.622978395062326],[-158.09695486238988,21.62263888888959],[-158.0971141975391,21.62260146210817],[-158.09726851852673,21.622749638282713],[-158.09731921926323,21.622731481482152],[-158.09718156745686,21.622453703704455],[-158.0971680382426,21.622330246914366],[-158.09745370371184,21.621910990430507],[-158.09770061729202,21.62215297458639],[-158.09779320988457,21.622182465313998],[-158.0978326590032,21.62214506172924],[-158.09770061729202,21.621830067009533],[-158.0975322712162,21.62168209876641],[-158.0975318216735,21.621589506173844],[-158.0983418945874,21.621620370371367],[-158.09824891497473,21.6215277777788],[-158.09804012346476,21.621460713492073],[-158.0979709550262,21.62131172839615],[-158.09813121467255,21.62100308642093],[-158.09805908174934,21.620694444445718],[-158.09807923266652,21.620540123458106],[-158.09813271605734,21.620512890245955],[-158.09841049383502,21.620715290706233],[-158.09847222223007,21.62068495897963],[-158.09855692883002,21.620478395063063],[-158.09856562374574,21.620200617285363],[-158.098408082885,21.61998456790272],[-158.0985360665271,21.619675925927496],[-158.0985339506251,21.61951887963324],[-158.09878086420528,21.61967361417023],[-158.09918209877307,21.61975441089792],[-158.09928738992872,21.619675925927496],[-158.0993672839582,21.619423081281386],[-158.09989197531607,21.619587497569132],[-158.10013888889623,21.61943952352997],[-158.10032407408136,21.61940929907611],[-158.10034953909698,21.619305555557236],[-158.10012111599957,21.618780864199366],[-158.10015271282577,21.618595679014238],[-158.100478395069,21.618229877296695],[-158.1009413580318,21.618299887329876],[-158.1010956790194,21.618256344530273],[-158.10112674458594,21.618163580248932],[-158.1010956790194,21.617899329586322],[-158.1013425925996,21.61799824780467],[-158.10186728395746,21.61832408746504],[-158.10242283951283,21.61853806373706],[-158.10282407408062,21.61834601909476],[-158.10304012346327,21.61835005109242],[-158.10325617284593,21.618263595369505],[-158.10356481482114,21.61829112482982],[-158.10378086420377,21.618180068877983],[-158.10396604938893,21.618145543744006]]}},{"type":"Feature","properties":{"depth_m":14.0},"geometry":{"type":"LineString","coordinates":[[-158.09146604939264,21.626415336630743],[-158.09134259260253,21.62639939380712],[-158.09131172840503,21.62628435531333],[-158.0914351851951,21.62617739692995],[-158.0915586419852,21.6261706929673],[-158.09160283042235,21.626280864197152],[-158.09146604939264,21.626415336630743]]}},{"type":"Feature","properties":{"depth_m":14.0},"geometry":{"type":"LineString","coordinates":[[-158.0918364197629,21.624678181710948],[-158.0918707907706,21.624614197530978],[-158.09180555556537,21.624592975065852],[-158.09178971967714,21.624645061728497],[-158.0918364197629,21.624678181710948]]}},{"type":"Feature","properties":{"depth_m":14.0},"geometry":{"type":"LineString","coordinates":[[-158.09165123457777,21.62428068622513],[-158.091687727391,21.624243827160715],[-158.0915779758504,21.624243827160715],[-158.09158950618271,21.624280253148985],[-158.09165123457777,21.62428068622513]]}},{"type":"Feature","properties":{"depth_m":14.0},"geometry":{"type":"LineString","coordinates":[[-158.09251543210837,21.623106201823905],[-158.0924228395158,21.62310939095554],[-158.0922685185282,21.622990915791274],[-158.09205246914553,21.62303808897047],[-158.0918672839604,21.622916605344557],[-158.09165123457777,21.623032771612294],[-158.09154606032237,21.623009259259845],[-158.09153187082947,21.622947530864803],[-158.09180555556537,21.62271852383441],[-158.09208333334306,21.622737121243247],[-158.0922993827257,21.62266434615558],[-158.0925621360912,21.623009259259845],[-158.09251543210837,21.623106201823905]]}},{"type":"Feature","properties":{"depth_m":14.0},"geometry":{"type":"LineString","coordinates":[[-158.094089506182,21.621559815598246],[-158.09408735812428,21.62155864197633],[-158.09408950618197,21.62152764766776],[-158.09409354118026,21.62155864197632],[-158.094089506182,21.621559815598246]]}},{"type":"Feature","properties":{"depth_m":14.0},"geometry":{"type":"LineString","coordinates":[[-158.101188271612,21.619863235846424],[-158.10091049383428,21.61948946784693],[-158.10076513368662,21.619459876544845],[-158.10076231516783,21.61952160493989],[-158.10100308642686,21.619803756352322],[-158.101188271612,21.619863235846424]]}},{"type":"Feature","properties":{"depth_m":16.0},"geometry":{"type":"LineString","coordinates":[[-158.09047839507193,21.62872160963246],[-158.090601851862,21.62830656340027],[-158.09087962963972,21.628275476931908],[-158.0911265432199,21.62818507837497],[-158.09202160494806,21.627564283913866],[-158.09236111112077,21.627538372057334],[-158.09242883581032,21.6274845679005],[-158.09250949275255,21.627206790122806],[-158.0927834493213,21.626867283950062],[-158.09276434733158,21.626558641974846],[-158.0928433929584,21.626373456789715],[-158.09271552131054,21.625848765431847],[-158.09237221798102,21.625262345678934],[-158.09238733159822,21.62501543209876],[-158.0927006172935,21.62423487273304],[-158.09282407408358,21.624223805101657],[-158.09350308642905,21.624389334639027],[-158.09361786740817,21.624367283950804],[-158.09385549522685,21.623842592592933],[-158.09370975884883,21.6232253086425],[-158.0937815992436,21.62304012345737],[-158.09393518519437,21.62285608017361],[-158.09399732384298,21.622854938272237],[-158.09405380629084,21.623379629630108],[-158.09424382716958,21.62352844277253],[-158.09451495324996,21.62353395061772],[-158.09470679013242,21.623414414110915],[-158.09489197531755,21.623484382997326],[-158.09532407408284,21.623481253853747],[-158.0956944444531,21.623652230610343],[-158.09586157474908,21.623472222222674],[-158.0959413580333,21.6233094235488],[-158.0961882716134,21.623343395626208],[-158.09634259260108,21.6233006425575],[-158.09643518519363,21.623325504663136],[-158.0968055555639,21.623610165393124],[-158.09710644632978,21.623688271605324],[-158.09719959592664,21.623410493827624],[-158.09702186466916,21.622947530864803],[-158.09701428379262,21.622762345679668],[-158.09708333334157,21.622705936392066],[-158.09729938272423,21.6228655357403],[-158.0973954281988,21.622854938272237],[-158.09738478749594,21.622669753087102],[-158.09723425232025,21.622391975309412],[-158.0972989217791,21.62220679012428],[-158.09745370371184,21.622026095864513],[-158.09773148148955,21.622234169225358],[-158.09788580247715,21.622213901304995],[-158.09789365199967,21.622114197531715],[-158.09774042116055,21.621743827161453],[-158.09776234568707,21.621697601367146],[-158.09816358025483,21.621670227879108],[-158.0983796296375,21.621744638545945],[-158.098454860066,21.621712962963933],[-158.09839031624657,21.6215277777788],[-158.0980516098274,21.62134259259367],[-158.0982063225655,21.621064814815977],[-158.09816358025483,21.6207141906936],[-158.09844135803255,21.620793415765412],[-158.09857619820292,21.620663580248195],[-158.0986346504564,21.62041666666802],[-158.0986175274576,21.620169753087843],[-158.09850577132931,21.619984567902716],[-158.0985648148226,21.619855890869886],[-158.09875000000775,21.619807785017294],[-158.09930555556315,21.619849695916564],[-158.09939814815573,21.619780709704344],[-158.0995216049458,21.619564041509662],[-158.09989197531607,21.619673915217128],[-158.10016975309375,21.619598339532274],[-158.100478395069,21.61959726461911],[-158.10075617284667,21.619650969866594],[-158.10103395062436,21.61991238496431],[-158.10128086420454,21.619975903490833],[-158.1013039435073,21.61989197531015],[-158.10125991574495,21.619799382717584],[-158.1010956790194,21.619651790743905],[-158.10095182668678,21.61942901234732],[-158.10074808373056,21.619274691359713],[-158.10069045822806,21.61887345679193],[-158.10073333449532,21.61865740740928],[-158.1005361081283,21.618441358026626],[-158.10055239171894,21.618348765434064],[-158.10128086420454,21.61843207922718],[-158.10134613594028,21.618348765434064],[-158.1013069336472,21.61813271605141],[-158.10137345679712,21.61811876427349],[-158.10211419753762,21.618495633414774],[-158.10248456790788,21.618605280022308],[-158.10285493827814,21.61841933166628],[-158.10304012346327,21.61844310107504],[-158.10328703704346,21.61834083899434],[-158.10359567901867,21.618360309124427],[-158.10396604938893,21.618225346185504]]}},{"type":"Feature","properties":{"depth_m":16.0},"geometry":{"type":"LineString","coordinates":[[-158.09109567902237,21.62781012187054],[-158.09103988807468,21.627793209875712],[-158.0910196466682,21.627731481480673],[-158.09109567902237,21.627739494915495],[-158.09109567902237,21.62781012187054]]}},{"type":"Feature","properties":{"depth_m":16.0},"geometry":{"type":"LineString","coordinates":[[-158.09066358025706,21.62773635185797],[-158.09050887272363,21.62770061728315],[-158.0907271896055,21.627577160493065],[-158.09078005291326,21.62766975308563],[-158.09066358025706,21.62773635185797]]}},{"type":"Feature","properties":{"depth_m":16.0},"geometry":{"type":"LineString","coordinates":[[-158.09399691358942,21.62427825875143],[-158.09400539711748,21.624274691358238],[-158.09399691358942,21.624242284479152],[-158.09398348073802,21.624274691358238],[-158.09399691358942,21.62427825875143]]}},{"type":"Feature","properties":{"depth_m":18.0},"geometry":{"type":"LineString","coordinates":[[-158.09047839507193,21.62887137814527],[-158.09075976325607,21.628626543208803],[-158.09137153518523,21.628410493826152],[-158.09174382717032,21.62821197555403],[-158.0918364197629,21.62821877303591],[-158.09205246914553,21.62835963443503],[-158.09270146096176,21.628194444443498],[-158.09289742408873,21.628070987653413],[-158.09301628852648,21.62788580246828],[-158.09304012346624,21.627722318980577],[-158.09291666667616,21.627665709174295],[-158.09257154883113,21.627762345678196],[-158.09266975309598,21.627382794605204],[-158.09297899031833,21.62699074074015],[-158.09304012346624,21.626803544505087],[-158.09316940320153,21.626620370369892],[-158.09337482644506,21.626527777777326],[-158.09335536658241,21.626373456789715],[-158.09316358025632,21.626214205932285],[-158.09315244247728,21.62612654320954],[-158.09353395062658,21.625964575065847],[-158.09356995758407,21.62591049382689],[-158.09350308642905,21.62580750128187],[-158.0932561728489,21.62579462948508],[-158.0930092592687,21.625932305640955],[-158.09294753087366,21.625910938579054],[-158.09285884753183,21.625632716049196],[-158.0928915921416,21.6253549382715],[-158.09312639796406,21.62486111111115],[-158.09341565153585,21.624583333333455],[-158.0938425926018,21.624555474270576],[-158.09418209877455,21.62460274821482],[-158.09431085897597,21.62455246913593],[-158.09433641976216,21.624433738912547],[-158.09418209877455,21.62405847820876],[-158.09402608460206,21.62396604938302],[-158.09424382716958,21.623722542219294],[-158.09476851852745,21.62361389179908],[-158.0951388888977,21.62379795559675],[-158.09529056103392,21.623688271605324],[-158.09544753087295,21.62368186734524],[-158.09603395062584,21.62395431680437],[-158.0960956790209,21.623909339381573],[-158.09609450899532,21.623842592592933],[-158.09593985174993,21.62359567901276],[-158.09606481482334,21.623470960707216],[-158.09634259260108,21.623444906522888],[-158.09702160494655,21.623757124714714],[-158.09720679013168,21.623756859325066],[-158.0972638171049,21.623410493827624],[-158.09717038830857,21.62300925925984],[-158.09720679013168,21.622961271443884],[-158.0973919753168,21.6229723306044],[-158.0974632347142,21.62291666666728],[-158.09741110151546,21.622453703704455],[-158.0974645121435,21.622299382716847],[-158.09754629630442,21.62224678122126],[-158.09779320988457,21.622314017354363],[-158.09794632696358,21.622268518519324],[-158.09797088904003,21.622175925926754],[-158.09788137320547,21.621898148149068],[-158.09797553492342,21.621774691358976],[-158.09816358025483,21.62176248860355],[-158.09844135803255,21.62184664411955],[-158.09855412045437,21.621774691358976],[-158.09852316768558,21.621558641976325],[-158.0982931528437,21.62134259259367],[-158.09831965310588,21.62091049382837],[-158.0985339506251,21.62084032828094],[-158.0986233244797,21.620756172840757],[-158.09878086420528,21.62019256942227],[-158.09890432099536,21.620195625238203],[-158.09905864198296,21.620308369652356],[-158.09913639754484,21.620293209877932],[-158.09911800673768,21.620200617285366],[-158.09889394222267,21.62007716049528],[-158.09891565689495,21.619984567902716],[-158.09905864198296,21.61996110595124],[-158.09945987655075,21.62007518042339],[-158.09958333334083,21.61999759829568],[-158.10004629630367,21.619958904560484],[-158.10026234568636,21.619754067063447],[-158.100478395069,21.619700731714644],[-158.1007870370442,21.61977813281681],[-158.10106481482188,21.619992597028226],[-158.10131172840207,21.62004868117721],[-158.10137196079268,21.619953703705193],[-158.1013274530009,21.619799382717584],[-158.1008862195452,21.619182098767148],[-158.100905896781,21.618533950619188],[-158.10131172840207,21.61852117249944],[-158.10171296296986,21.618406902099196],[-158.10248456790788,21.618670033793535],[-158.10285493827814,21.61849602314487],[-158.1030709876608,21.618505359246324],[-158.10331790124098,21.618396776080477],[-158.1036265432162,21.61840525350594],[-158.10396604938893,21.618279428463325]]}},{"type":"Feature","properties":{"depth_m":18.0},"geometry":{"type":"LineString","coordinates":[[-158.09359567902163,21.625681646845234],[-158.09367921262984,21.625601851851673],[-158.0936725384472,21.625478395061585],[-158.0935648148241,21.62523649068479],[-158.09344135803403,21.625197030193917],[-158.09327990405643,21.62538580246902],[-158.09344135803403,21.625619632770555],[-158.09359567902163,21.625681646845234]]}},{"type":"Feature","properties":{"depth_m":18.0},"geometry":{"type":"LineString","coordinates":[[-158.09387345679932,21.6250937480215],[-158.09399691358942,21.624787197231896],[-158.09378086420674,21.624841321321867],[-158.09359567902163,21.62481597251761],[-158.09352367140593,21.62486111111115],[-158.09368827161418,21.625057025824248],[-158.09387345679932,21.6250937480215]]}},{"type":"Feature","properties":{"depth_m":18.0},"geometry":{"type":"LineString","coordinates":[[-158.09464506173737,21.624218941371936],[-158.09471738442596,21.62415123456815],[-158.09468593025014,21.624027777778064],[-158.0945833333423,21.62396683433058],[-158.09445987655224,21.62398061762398],[-158.09442927944525,21.624027777778064],[-158.09445902865798,21.62412037037063],[-158.09464506173737,21.624218941371936]]}},{"type":"Feature","properties":{"depth_m":20.0},"geometry":{"type":"LineString","coordinates":[[-158.09047839507193,21.62931934582416],[-158.09103395062732,21.62899650084844],[-158.09125000000998,21.628966999792635],[-158.09165123457777,21.629079220905265],[-158.09254629630587,21.62883995788193],[-158.09304012346624,21.62854741878718],[-158.09322530865137,21.628281300853946],[-158.0938117284043,21.62774566241682],[-158.09393518519437,21.627772817190987],[-158.09408950618194,21.627934430537728],[-158.09418209877455,21.627930342654714],[-158.0942329730055,21.62785493827076],[-158.09421449380548,21.627793209875716],[-158.09402777778692,21.62761859783986],[-158.09368827161418,21.627493883556802],[-158.09353395062658,21.627371275719465],[-158.0934019239947,21.627361111110414],[-158.09359567902163,21.62719137237059],[-158.09366012201826,21.62699074074015],[-158.09376052015654,21.626867283950066],[-158.0938425926018,21.626567874955015],[-158.0941203703795,21.626624281661194],[-158.09421296297205,21.626464798807017],[-158.09445987655224,21.626841001606557],[-158.09470679013242,21.626768436180697],[-158.0948150988501,21.626589506172365],[-158.09484738328993,21.626342592592195],[-158.09497810774343,21.626064814814498],[-158.0952856251609,21.625632716049196],[-158.09533360240533,21.625324074073976],[-158.09526234568781,21.625220564038592],[-158.09518108173387,21.625231481481414],[-158.0950885452659,21.62538580246902],[-158.0948302469225,21.625546945805286],[-158.09470679013242,21.625506934151467],[-158.09453741259446,21.625324074073973],[-158.0945524691448,21.62514924594423],[-158.0948302469225,21.625057655215766],[-158.09488857023166,21.624984567901237],[-158.09478512565912,21.624799382716112],[-158.0947218743325,21.62449074074089],[-158.09476443701962,21.624367283950804],[-158.09492283951502,21.624181993953176],[-158.09507716050268,21.624084191993198],[-158.09541666667542,21.624161373827015],[-158.09550925926797,21.62401474781963],[-158.09581790124318,21.623994528486254],[-158.09612654321842,21.6240668809984],[-158.09637345679857,21.62398137004719],[-158.09642619435033,21.623904320987975],[-158.096427873377,21.62378086419789],[-158.09658950618123,21.623726804860453],[-158.09729938272423,21.623885897022646],[-158.09734540076005,21.62381172839541],[-158.09738377003325,21.62334876543258],[-158.09763716991404,21.62316358024745],[-158.09763587898047,21.622854938272237],[-158.09804861121603,21.622299382716847],[-158.09803592581179,21.62199074074163],[-158.09816358025483,21.621911841664758],[-158.09847222223007,21.62199072451226],[-158.09859567902018,21.621923256022768],[-158.09866476270912,21.6218055555565],[-158.09866796110646,21.621435185186236],[-158.09871913581023,21.621338950402528],[-158.09902591005795,21.62137345679119],[-158.09908822438868,21.621219135803585],[-158.09918209877304,21.62113071118459],[-158.09962715876736,21.62097222222341],[-158.09968223635394,21.62091049382837],[-158.09965438321618,21.620725308643237],[-158.09969881186873,21.62063271605067],[-158.10001024094095,21.620540123458106],[-158.09998456790862,21.620304647888062],[-158.10013888889623,21.620276062009033],[-158.1006635802541,21.619963315017678],[-158.10084876543922,21.619919512665515],[-158.10112654321694,21.62011176006431],[-158.10131172840207,21.62012008248948],[-158.10140432099462,21.620072786878772],[-158.10144289272847,21.61992283950767],[-158.101322236443,21.619521604939887],[-158.10128799314805,21.619151234569628],[-158.1013273260186,21.619089506174586],[-158.1015322813327,21.61902777777954],[-158.10152777778472,21.61885637169957],[-158.1018055555624,21.618812436132963],[-158.10192901235249,21.61891790656653],[-158.10196966338592,21.618780864199366],[-158.10208333334012,21.61872110602683],[-158.10254629630293,21.618755307699576],[-158.10285493827814,21.618608489854104],[-158.10310185185833,21.618576710354052],[-158.1033487654385,21.618464873523795],[-158.10365740741372,21.618450290816444],[-158.10396604938893,21.61833608000739]]}},{"type":"Feature","properties":{"depth_m":20.0},"geometry":{"type":"LineString","coordinates":[[-158.0915586419852,21.629696597580526],[-158.09149691359016,21.629500509023067],[-158.09136832376336,21.62942901234437],[-158.09134581099505,21.629490740739413],[-158.09140432099758,21.629600475205798],[-158.0915586419852,21.629696597580526]]}},{"type":"Feature","properties":{"depth_m":20.0},"geometry":{"type":"LineString","coordinates":[[-158.0944907407498,21.628513880875555],[-158.0945082300823,21.62844135802367],[-158.09445987655224,21.628351977946505],[-158.09430555556463,21.628263584964756],[-158.09426313020163,21.628317901233586],[-158.09428757250367,21.628410493826152],[-158.09439814815718,21.628509723552426],[-158.09449074074976,21.628513880875555]]}},{"type":"Feature","properties":{"depth_m":20.0},"geometry":{"type":"LineString","coordinates":[[-158.09504629630516,21.624586589336708],[-158.09504669316598,21.624583333333455],[-158.09504629630516,21.624582099793503],[-158.09504385161623,21.624583333333455],[-158.09504629630516,21.624586589336708]]}},{"type":"Feature","properties":{"depth_m":20.0},"geometry":{"type":"LineString","coordinates":[[-158.0986882716127,21.621238460785868],[-158.0985968720253,21.621188271606062],[-158.09857383210658,21.621095679013496],[-158.09875000000775,21.620918417845242],[-158.0986882716127,21.621238460785868]]}},{"type":"Feature","properties":{"depth_m":22.0},"geometry":{"type":"LineString","coordinates":[[-158.09131491823126,21.63007716049233],[-158.09158950618271,21.62988012393086],[-158.09178099491638,21.629891975307196],[-158.09165123457777,21.62939763464876],[-158.0917129629728,21.62939369516753],[-158.09189814815792,21.62952209956492],[-158.09211419754058,21.629542334431086],[-158.09260802470092,21.629208773272275],[-158.09316358025632,21.628950204757324],[-158.09349401729003,21.628688271603846],[-158.0936855660234,21.628595679011283],[-158.0937225268709,21.628533950616237],[-158.0936771881621,21.62837962962863],[-158.0937500000092,21.62828286220199],[-158.0938117284043,21.628307760984782],[-158.0938121155265,21.62853395061624],[-158.0941203703795,21.628531485562007],[-158.09445987655224,21.62862304547898],[-158.09455682969747,21.628595679011283],[-158.09461316221456,21.628472222221195],[-158.09452835692449,21.62822530864102],[-158.09460511456746,21.628070987653413],[-158.0944740554928,21.62770061728315],[-158.0946759259349,21.627473638117007],[-158.09510802470018,21.62746470202388],[-158.09505172691013,21.62733024691289],[-158.09508027912855,21.627206790122802],[-158.0951388888977,21.62712814698816],[-158.0952932098853,21.62710902888472],[-158.09541666667545,21.62689461596306],[-158.09536186687507,21.626682098764935],[-158.09557402543388,21.626373456789715],[-158.09556735799492,21.62609567901202],[-158.0956870936342,21.625848765431847],[-158.09556317957532,21.62557098765415],[-158.09560185186055,21.6254763655387],[-158.0959413580333,21.625190103445032],[-158.09621913581097,21.625156177115354],[-158.09634234007584,21.624922839506194],[-158.09649244117702,21.624799382716105],[-158.09677469136636,21.62429456265338],[-158.09710070201743,21.624027777778064],[-158.0973919753168,21.623980945542584],[-158.0976697530945,21.6237331111672],[-158.09831600418622,21.62288580246976],[-158.09858241849395,21.622484567901974],[-158.09862654321768,21.622340858460063],[-158.09885250465564,21.622268518519324],[-158.09967458518548,21.621373456791193],[-158.10004629630367,21.62126548495576],[-158.10013888889623,21.620894242402777],[-158.10044116912843,21.620725308643237],[-158.10037889256162,21.620509259260583],[-158.1004209229773,21.620385802470498],[-158.1006327160566,21.62039320534322],[-158.10084876543922,21.620527626817335],[-158.10088635276816,21.620478395063063],[-158.10081009494886,21.620293209877932],[-158.10084350640622,21.62023148148289],[-158.10112654321694,21.62028847382306],[-158.10143518519214,21.620150838361994],[-158.1017070609191,21.619861111112627],[-158.1018055555624,21.619550112755583],[-158.10217592593267,21.619382072909502],[-158.1025154321054,21.619020696886288],[-158.10294753087072,21.618857167871244],[-158.10319444445088,21.618677541536265],[-158.10396604938893,21.61841524314844]]}},{"type":"Feature","properties":{"depth_m":22.0},"geometry":{"type":"LineString","coordinates":[[-158.09047839507193,21.630021504836687],[-158.0908126817963,21.629768518517107],[-158.09094026732953,21.62958333333198],[-158.0911574074174,21.62952319261264],[-158.0912859242181,21.62964506172702],[-158.09128539752416,21.629737654319587],[-158.0909693298579,21.629861111109673],[-158.09092188807796,21.62992283950472],[-158.09097749356172,21.63001543209728],[-158.09118688989864,21.630077160492327]]}},{"type":"Feature","properties":{"depth_m":24.0},"geometry":{"type":"LineString","coordinates":[[-158.09232257980386,21.630077160492327],[-158.09248456791084,21.629894818809024],[-158.09294753087366,21.629811317786007],[-158.09291666667616,21.629529500429324],[-158.09307098766376,21.629596940933858],[-158.09319444445384,21.629582944491695],[-158.09336687431266,21.629429012344367],[-158.09390432099684,21.629142548863342],[-158.0942746913671,21.62911753526093],[-158.0945833333423,21.6292109775455],[-158.09476851852745,21.629125815136618],[-158.09501543210763,21.629158186427293],[-158.09505531837488,21.628966049381543],[-158.09529262345436,21.628503086418718],[-158.09529576703463,21.628317901233586],[-158.0954140747649,21.628317901233586],[-158.095433775014,21.62844135802367],[-158.09557098766302,21.628521391005908],[-158.09566358025558,21.628409044541097],[-158.09587962963823,21.628398958798986],[-158.09595665639802,21.62822530864102],[-158.09596963861125,21.62804012345589],[-158.09605507854852,21.627916666665804],[-158.095902647744,21.627731481480673],[-158.0958683969681,21.627608024690588],[-158.09594090508742,21.627206790122802],[-158.09609266860667,21.626898148147585],[-158.09596993390988,21.626496913579807],[-158.09613074973817,21.62603395061698],[-158.09646604939115,21.62577336068581],[-158.09677469136636,21.62547027952355],[-158.09689814815644,21.625270860510444],[-158.09743710035946,21.624768518518586],[-158.09764977731868,21.624398148148323],[-158.09801497803792,21.62402777777806],[-158.09835728946365,21.623533950617716],[-158.09887345679783,21.623019935032072],[-158.0991235619993,21.62270061728463],[-158.09927166609495,21.622453703704455],[-158.09930555556315,21.622218278725455],[-158.09951191940684,21.622114197531715],[-158.09958333334083,21.621990366656203],[-158.09976851852596,21.62187244555588],[-158.09994371019837,21.621558641976325],[-158.10030092971255,21.621373456791193],[-158.1003858024764,21.62108398699047],[-158.1005727215227,21.62097222222341],[-158.10093866539128,21.621003086420934],[-158.10104312646686,21.620817901235803],[-158.1013425925996,21.620668885222173],[-158.1014969135872,21.620526969533934],[-158.1016987776295,21.620478395063063],[-158.10174382716735,21.620375788431875],[-158.10191829956096,21.62026234568041],[-158.10202865893325,21.619984567902716],[-158.10229938272275,21.619952618378395],[-158.10245370371035,21.61987677995845],[-158.1027932098831,21.619543146227002],[-158.10319444445088,21.619235575512626],[-158.1034722222286,21.61924534689308],[-158.10365275953325,21.619182098767148],[-158.10375179980724,21.619058641977063],[-158.1037054648199,21.61887345679193],[-158.10396604938893,21.618676933679996]]}},{"type":"Feature","properties":{"depth_m":24.0},"geometry":{"type":"LineString","coordinates":[[-158.10155864198222,21.620355537577783],[-158.10150114445105,21.620324074075455],[-158.10155864198222,21.620265666638662],[-158.10162242102223,21.620324074075455],[-158.10155864198222,21.620355537577783]]}},{"type":"Feature","properties":{"depth_m":26.0},"geometry":{"type":"LineString","coordinates":[[-158.09369181866242,21.630077160492327],[-158.0939660493919,21.629774301456255],[-158.09418209877455,21.629645300119343],[-158.0952006172928,21.629787195293666],[-158.09572530865063,21.629562941409176],[-158.09591049383576,21.62932314017457],[-158.09612654321842,21.62917319175937],[-158.09634259260108,21.628757514702148],[-158.0966933284236,21.62837962962863],[-158.0967129629713,21.628170432558488],[-158.09688345501684,21.62800925925837],[-158.0969175688685,21.627762345678196],[-158.0971252427235,21.627361111110414],[-158.09705702505084,21.627083333332717],[-158.0968326303636,21.6267746913575],[-158.09686728395894,21.626705079210456],[-158.09709130845516,21.62665123456741],[-158.09695154572745,21.62643518518476],[-158.096978987176,21.626126543209544],[-158.09708333334157,21.62604123318044],[-158.09736111111928,21.6259925708411],[-158.0976607448837,21.62563271604919],[-158.09786787442692,21.625169753086368],[-158.09877584985387,21.62399691358054],[-158.0988953655028,21.623657407407798],[-158.0989660493904,21.623620791629158],[-158.09915123457554,21.623653962905195],[-158.0992438271681,21.623555668165487],[-158.09930054738427,21.623410493827627],[-158.09924923672506,21.6232253086425],[-158.09927469136562,21.623130502831657],[-158.09942901235323,21.623000442931247],[-158.09976214939184,21.622854938272237],[-158.10010802469873,21.622292455154362],[-158.10030277620493,21.62214506172924],[-158.10031956103475,21.621898148149064],[-158.10043743522579,21.621743827161453],[-158.1007512856302,21.62149691358128],[-158.10081790124173,21.62129713066098],[-158.10131172840207,21.62132280887183],[-158.10193918939603,21.621157407408543],[-158.10199448904666,21.621095679013496],[-158.10202160494507,21.62082982862713],[-158.1022067901302,21.62058320989989],[-158.1023611111178,21.620524542083235],[-158.1025154321054,21.62037292382513],[-158.1027623456856,21.620420938226253],[-158.1029602188815,21.62026234568041],[-158.10328703704346,21.620189179125063],[-158.10336684620393,21.62007716049528],[-158.10338929311354,21.619799382717584],[-158.10368827161125,21.6197883990174],[-158.10396604938893,21.61957274004009]]}},{"type":"Feature","properties":{"depth_m":28.0},"geometry":{"type":"LineString","coordinates":[[-158.09586802386036,21.630077160492327],[-158.09602221170812,21.62986111110967],[-158.09652777778618,21.62939311519597],[-158.09683641976142,21.629303632389394],[-158.09705246914407,21.629110224585073],[-158.0972685185267,21.628834535605225],[-158.09739888170728,21.62874999999889],[-158.09763888889697,21.6282389246192],[-158.09785493827962,21.628146758026574],[-158.09816358025483,21.6278375026125],[-158.09838583882922,21.627268518517845],[-158.09836585765842,21.626867283950062],[-158.0981018518598,21.62668732979253],[-158.09786305569315,21.62662037036989],[-158.09783651414705,21.626496913579803],[-158.09831790124247,21.626287225651197],[-158.09862654321768,21.62621569103399],[-158.0986546861825,21.625972222221932],[-158.09881384256772,21.625817901234324],[-158.09875256322417,21.625601851851673],[-158.09881015582553,21.625416666666542],[-158.09919194373683,21.625077160493802],[-158.09933641976068,21.62475912204652],[-158.09961419753836,21.62472392330218],[-158.099877336171,21.62445987654337],[-158.1001102353771,21.62399691358054],[-158.10006123681154,21.623626543210282],[-158.09997841382716,21.623472222222674],[-158.0999970347545,21.623317901235062],[-158.1002521380858,21.623163580247454],[-158.1003843636163,21.623009259259845],[-158.10084876543922,21.6221247397603],[-158.10104319553454,21.62202160493915],[-158.101250000007,21.621750862083942],[-158.10140432099462,21.621792462479384],[-158.10171296296986,21.621599854250277],[-158.10195987655,21.621536579525923],[-158.1022067901302,21.621557869426372],[-158.10233024692027,21.621496386723354],[-158.10242525331142,21.621373456791193],[-158.10236384046507,21.621157407408543],[-158.10239197531533,21.62111018265417],[-158.10282407408062,21.62099997909205],[-158.10310185185833,21.620862926365596],[-158.10376048400823,21.62044753086554],[-158.10396604938893,21.62023227816473]]}},{"type":"Feature","properties":{"depth_m":30.0},"geometry":{"type":"LineString","coordinates":[[-158.09669704919838,21.630077160492327],[-158.09686728395894,21.629996661781856],[-158.09699074074902,21.62983532282674],[-158.09717592593415,21.629763496025557],[-158.09729938272423,21.629565094741203],[-158.09779320988457,21.62931999890349],[-158.09791666667468,21.629092537794445],[-158.09819444445236,21.628851767993886],[-158.09844135803255,21.628445079754506],[-158.09870192947574,21.628256172838544],[-158.09884549623717,21.628070987653413],[-158.09889734358993,21.62782407407324],[-158.09901450103567,21.627638888888107],[-158.09893945602008,21.627237654320325],[-158.09918687306268,21.627083333332713],[-158.09923880855337,21.626990740740148],[-158.09918755197313,21.626898148147585],[-158.0989991257338,21.62680555555502],[-158.09893741782923,21.626712962962454],[-158.0992438271681,21.626616234272774],[-158.09933468559493,21.626527777777326],[-158.09957983439054,21.626064814814498],[-158.0996032720432,21.625910493826893],[-158.09972421153122,21.625787037036805],[-158.09983024692102,21.625334679496085],[-158.100107505737,21.625108024691325],[-158.10027742613482,21.624645061728497],[-158.1005344825591,21.62433641975328],[-158.10057098766154,21.62413480380095],[-158.1007089120442,21.624027777778064],[-158.1008380088707,21.623379629630108],[-158.10109152647658,21.623163580247454],[-158.10174382716735,21.622413403146936],[-158.10222017372027,21.622114197531715],[-158.10229938272275,21.621950528944904],[-158.1025154321054,21.621855225671943],[-158.10273148148806,21.62193262405848],[-158.10313271605585,21.621882516399264],[-158.10323910418782,21.621774691358976],[-158.10341820618692,21.621157407408546],[-158.1035339506236,21.621110542741135],[-158.10365740741372,21.621162862862548],[-158.10381172840133,21.62106260284352],[-158.10396604938893,21.621037885089155]]}},{"type":"Feature","properties":{"depth_m":32.0},"geometry":{"type":"LineString","coordinates":[[-158.09779971048548,21.630077160492323],[-158.09800925926723,21.63002645892062],[-158.09810185185978,21.629921858804455],[-158.09876405582088,21.629490740739413],[-158.09887074575346,21.629243827159243],[-158.0993915201714,21.62871913580137],[-158.09940386053006,21.628472222221195],[-158.09966032052682,21.62834876543111],[-158.09964854948575,21.62804012345589],[-158.09988419982778,21.627638888888107],[-158.09986573191145,21.627299382715368],[-158.09973765432846,21.62706851901213],[-158.10001543210615,21.62690120072811],[-158.10019018251506,21.626712962962454],[-158.10060185185907,21.6261160360489],[-158.10069629614176,21.62572530864176],[-158.10064618852374,21.625509259259108],[-158.10076818742294,21.62523148148141],[-158.10089016423498,21.625108024691325],[-158.10092403958078,21.62489197530867],[-158.10115740741446,21.624587224362408],[-158.10132673118682,21.623904320987975],[-158.10143518519214,21.623704717740395],[-158.10216585022985,21.622854938272237],[-158.1024621707835,21.62257716049454],[-158.10254629630293,21.62223407831724],[-158.10279320988312,21.622137651506996],[-158.10313271605585,21.622243089311006],[-158.1035339506236,21.622257966170718],[-158.10362492365562,21.62220679012428],[-158.1035711287658,21.622052469136673],[-158.10359567901867,21.62180683698051],[-158.10387345679638,21.621825558121046],[-158.10396604938893,21.621781308969013]]}},{"type":"Feature","properties":{"depth_m":34.0},"geometry":{"type":"LineString","coordinates":[[-158.0988871367024,21.630077160492327],[-158.09915151594157,21.629830246912153],[-158.09922857376432,21.629675925924545],[-158.09957671487442,21.629305555554282],[-158.10014826358486,21.62878086419641],[-158.1004541772413,21.62822530864102],[-158.1004735902198,21.62788580246828],[-158.10067642278707,21.627453703702976],[-158.10045173942174,21.627175925925282],[-158.10053760645218,21.62711419753024],[-158.10084876543922,21.627041314322568],[-158.10101148209714,21.626743827159977],[-158.1011729262582,21.626188271604583],[-158.10140605998924,21.62569444444424],[-158.10145829465256,21.62501543209876],[-158.1015632424713,21.624521604938412],[-158.10242283951285,21.62357541837519],[-158.10271092471305,21.623163580247454],[-158.10288579112228,21.62300925925984],[-158.10294753087072,21.62273315484226],[-158.1030709876608,21.62271651160578],[-158.1032253086484,21.622837254089717],[-158.10331790124098,21.62285327831939],[-158.10359567901867,21.622795481625523],[-158.10396604938893,21.62262273401419]]}},{"type":"Feature","properties":{"depth_m":36.0},"geometry":{"type":"LineString","coordinates":[[-158.09945257924713,21.630077160492327],[-158.1002666156889,21.629305555554282],[-158.10074718874162,21.62856481481376],[-158.10105667378838,21.627700617283146],[-158.10099749975566,21.627391975307933],[-158.101188271612,21.6273472775068],[-158.10128086420454,21.62726986521925],[-158.10166850436178,21.62662037036989],[-158.10176078895392,21.62603395061698],[-158.1019002327201,21.625787037036805],[-158.10182228330964,21.62557098765415],[-158.1018466904473,21.62520061728389],[-158.1027623456856,21.62421794105957],[-158.10336266583033,21.623317901235062],[-158.1034722222286,21.62327009131667],[-158.10368827161125,21.623321332983473],[-158.10396604938893,21.6232261782714]]}},{"type":"Feature","properties":{"depth_m":38.0},"geometry":{"type":"LineString","coordinates":[[-158.10020480548528,21.630077160492327],[-158.1006635802541,21.629581667788585],[-158.10130129428038,21.628595679011283],[-158.10150893405145,21.62766975308563],[-158.10187326097653,21.626959876542628],[-158.10229938272275,21.625626189699055],[-158.10325584494873,21.624614197530978],[-158.10362899963212,21.62396604938302],[-158.10396604938893,21.62378837374264]]}},{"type":"Feature","properties":{"depth_m":40.0},"geometry":{"type":"LineString","coordinates":[[-158.1008467216488,21.630077160492327],[-158.101250000007,21.629547123532845],[-158.10171499911567,21.62871913580137],[-158.1018052718671,21.62844135802367],[-158.10190063360153,21.627793209875716],[-158.10254629630293,21.62615407042499],[-158.10328703704346,21.625489634222575],[-158.10396604938893,21.624760260131314]]}}]}